[
  {
    "OBJECT_NAME": "STARLINK-1123",
    "OBJECT_ID": "20001S",
    "EPOCH": "2025-11-10T19:54:48.701376",
    "MEAN_MOTION": 15.06398579,
    "ECCENTRICITY": 0.0001704,
    "INCLINATION": 53.0569,
    "RA_OF_ASC_NODE": 160.2032,
    "ARG_OF_PERICENTER": 94.1024,
    "MEAN_ANOMALY": 266.016,
    "EPHEMERIS_TYPE": 0,
    "CLASSIFICATION_TYPE": "U",
    "NORAD_CAT_ID": 44930,
    "ELEMENT_SET_NO": 999,
    "REV_AT_EPOCH": 32193,
    "BSTAR": 8.3318e-05,
    "MEAN_MOTION_DOT": 9.6e-06,
    "MEAN_MOTION_DDOT": 0.0,
    "TLE_LINE1": "1 44930U 20001S   25314.82973034  .00000960  00000+0  83318-4 0  9995",
    "TLE_LINE2": "2 44930  53.0569 160.2032 0001704  94.1024 266.0160 15.06398579321938",
    "COMMENT": "Grouped by shell and plane from TLE"
  },
  {
    "OBJECT_NAME": "STARLINK-1695",
    "OBJECT_ID": "20062E",
    "EPOCH": "2025-11-10T23:47:02.403456",
    "MEAN_MOTION": 15.06398647,
    "ECCENTRICITY": 0.0001562,
    "INCLINATION": 53.0524,
    "RA_OF_ASC_NODE": 169.4785,
    "ARG_OF_PERICENTER": 92.6927,
    "MEAN_ANOMALY": 267.424,
    "EPHEMERIS_TYPE": 0,
    "CLASSIFICATION_TYPE": "U",
    "NORAD_CAT_ID": 46329,
    "ELEMENT_SET_NO": 999,
    "REV_AT_EPOCH": 28669,
    "BSTAR": 0.00043485,
    "MEAN_MOTION_DOT": 6.201e-05,
    "MEAN_MOTION_DDOT": 0.0,
    "TLE_LINE1": "1 46329U 20062E   25314.99100004  .00006201  00000+0  43485-3 0  9997",
    "TLE_LINE2": "2 46329  53.0524 169.4785 0001562  92.6927 267.4240 15.06398647286699",
    "COMMENT": "Grouped by shell and plane from TLE"
  },
  {
    "OBJECT_NAME": "STARLINK-1666",
    "OBJECT_ID": "20062AJ",
    "EPOCH": "2025-11-11T06:51:36.391968",
    "MEAN_MOTION": 15.06395978,
    "ECCENTRICITY": 4.02e-05,
    "INCLINATION": 53.0555,
    "RA_OF_ASC_NODE": 168.1511,
    "ARG_OF_PERICENTER": 84.9192,
    "MEAN_ANOMALY": 275.1843,
    "EPHEMERIS_TYPE": 0,
    "CLASSIFICATION_TYPE": "U",
    "NORAD_CAT_ID": 46357,
    "ELEMENT_SET_NO": 999,
    "REV_AT_EPOCH": 28674,
    "BSTAR": 0.0,
    "MEAN_MOTION_DOT": -6.037e-05,
    "MEAN_MOTION_DDOT": 0.0,
    "TLE_LINE1": "1 46357U 20062AJ  25315.28583787 -.00006037  00000+0 -38682-3 0  9996",
    "TLE_LINE2": "2 46357  53.0555 168.1511 0000402  84.9192 275.1843 15.06395978286742",
    "COMMENT": "Grouped by shell and plane from TLE"
  },
  {
    "OBJECT_NAME": "STARLINK-2611",
    "OBJECT_ID": "21038M",
    "EPOCH": "2025-11-10T22:22:08.938560",
    "MEAN_MOTION": 15.0639222,
    "ECCENTRICITY": 0.0001627,
    "INCLINATION": 53.0526,
    "RA_OF_ASC_NODE": 169.9019,
    "ARG_OF_PERICENTER": 94.9115,
    "MEAN_ANOMALY": 265.206,
    "EPHEMERIS_TYPE": 0,
    "CLASSIFICATION_TYPE": "U",
    "NORAD_CAT_ID": 48364,
    "ELEMENT_SET_NO": 999,
    "REV_AT_EPOCH": 24919,
    "BSTAR": 0.00036568,
    "MEAN_MOTION_DOT": 5.168e-05,
    "MEAN_MOTION_DDOT": 0.0,
    "TLE_LINE1": "1 48364U 21038M   25314.93204790  .00005168  00000+0  36568-3 0  9998",
    "TLE_LINE2": "2 48364  53.0526 169.9019 0001627  94.9115 265.2060 15.06392220249194",
    "COMMENT": "Grouped by shell and plane from TLE"
  },
  {
    "OBJECT_NAME": "STARLINK-2608",
    "OBJECT_ID": "21038N",
    "EPOCH": "2025-11-11T00:40:06.778272",
    "MEAN_MOTION": 15.06402353,
    "ECCENTRICITY": 0.0001717,
    "INCLINATION": 53.052,
    "RA_OF_ASC_NODE": 169.3106,
    "ARG_OF_PERICENTER": 99.7832,
    "MEAN_ANOMALY": 260.3351,
    "EPHEMERIS_TYPE": 0,
    "CLASSIFICATION_TYPE": "U",
    "NORAD_CAT_ID": 48365,
    "ELEMENT_SET_NO": 999,
    "REV_AT_EPOCH": 24921,
    "BSTAR": 0.00028223,
    "MEAN_MOTION_DOT": 3.925e-05,
    "MEAN_MOTION_DDOT": 0.0,
    "TLE_LINE1": "1 48365U 21038N   25315.02785623  .00003925  00000+0  28223-3 0  9997",
    "TLE_LINE2": "2 48365  53.0520 169.3106 0001717  99.7832 260.3351 15.06402353249210",
    "COMMENT": "Grouped by shell and plane from TLE"
  },
  {
    "OBJECT_NAME": "STARLINK-2643",
    "OBJECT_ID": "21038Q",
    "EPOCH": "2025-11-11T06:39:02.376576",
    "MEAN_MOTION": 15.06399274,
    "ECCENTRICITY": 0.000159,
    "INCLINATION": 53.052,
    "RA_OF_ASC_NODE": 163.1921,
    "ARG_OF_PERICENTER": 95.5135,
    "MEAN_ANOMALY": 264.6035,
    "EPHEMERIS_TYPE": 0,
    "CLASSIFICATION_TYPE": "U",
    "NORAD_CAT_ID": 48367,
    "ELEMENT_SET_NO": 999,
    "REV_AT_EPOCH": 24931,
    "BSTAR": 0.00022866,
    "MEAN_MOTION_DOT": 3.126e-05,
    "MEAN_MOTION_DDOT": 0.0,
    "TLE_LINE1": "1 48367U 21038Q   25315.27711084  .00003126  00000+0  22866-3 0  9996",
    "TLE_LINE2": "2 48367  53.0520 163.1921 0001590  95.5135 264.6035 15.06399274249312",
    "COMMENT": "Grouped by shell and plane from TLE"
  },
  {
    "OBJECT_NAME": "STARLINK-2623",
    "OBJECT_ID": "21038R",
    "EPOCH": "2025-11-10T23:45:05.382432",
    "MEAN_MOTION": 15.06399885,
    "ECCENTRICITY": 0.0001479,
    "INCLINATION": 53.0514,
    "RA_OF_ASC_NODE": 164.7608,
    "ARG_OF_PERICENTER": 87.0997,
    "MEAN_ANOMALY": 273.0161,
    "EPHEMERIS_TYPE": 0,
    "CLASSIFICATION_TYPE": "U",
    "NORAD_CAT_ID": 48368,
    "ELEMENT_SET_NO": 999,
    "REV_AT_EPOCH": 24927,
    "BSTAR": 0.00026115,
    "MEAN_MOTION_DOT": 3.61e-05,
    "MEAN_MOTION_DDOT": 0.0,
    "TLE_LINE1": "1 48368U 21038R   25314.98964563  .00003610  00000+0  26115-3 0  9995",
    "TLE_LINE2": "2 48368  53.0514 164.7608 0001479  87.0997 273.0161 15.06399885249270",
    "COMMENT": "Grouped by shell and plane from TLE"
  },
  {
    "OBJECT_NAME": "STARLINK-2621",
    "OBJECT_ID": "21038T",
    "EPOCH": "2025-11-10T22:30:43.414272",
    "MEAN_MOTION": 15.06407314,
    "ECCENTRICITY": 0.0001575,
    "INCLINATION": 53.0524,
    "RA_OF_ASC_NODE": 164.7189,
    "ARG_OF_PERICENTER": 82.5349,
    "MEAN_ANOMALY": 277.5819,
    "EPHEMERIS_TYPE": 0,
    "CLASSIFICATION_TYPE": "U",
    "NORAD_CAT_ID": 48370,
    "ELEMENT_SET_NO": 999,
    "REV_AT_EPOCH": 24926,
    "BSTAR": 0.00039722000000000005,
    "MEAN_MOTION_DOT": 5.641e-05,
    "MEAN_MOTION_DDOT": 0.0,
    "TLE_LINE1": "1 48370U 21038T   25314.93800248  .00005641  00000+0  39722-3 0  9996",
    "TLE_LINE2": "2 48370  53.0524 164.7189 0001575  82.5349 277.5819 15.06407314249261",
    "COMMENT": "Grouped by shell and plane from TLE"
  },
  {
    "OBJECT_NAME": "STARLINK-2589",
    "OBJECT_ID": "21038U",
    "EPOCH": "2025-11-10T22:25:25.603104",
    "MEAN_MOTION": 15.06396256,
    "ECCENTRICITY": 0.0001433,
    "INCLINATION": 53.0526,
    "RA_OF_ASC_NODE": 164.7328,
    "ARG_OF_PERICENTER": 89.891,
    "MEAN_ANOMALY": 270.2244,
    "EPHEMERIS_TYPE": 0,
    "CLASSIFICATION_TYPE": "U",
    "NORAD_CAT_ID": 48371,
    "ELEMENT_SET_NO": 999,
    "REV_AT_EPOCH": 24926,
    "BSTAR": 0.00017261000000000002,
    "MEAN_MOTION_DOT": 2.29e-05,
    "MEAN_MOTION_DDOT": 0.0,
    "TLE_LINE1": "1 48371U 21038U   25314.93432411  .00002290  00000+0  17261-3 0  9991",
    "TLE_LINE2": "2 48371  53.0526 164.7328 0001433  89.8910 270.2244 15.06396256249260",
    "COMMENT": "Grouped by shell and plane from TLE"
  },
  {
    "OBJECT_NAME": "STARLINK-2609",
    "OBJECT_ID": "21038W",
    "EPOCH": "2025-11-10T23:50:20.219712",
    "MEAN_MOTION": 15.06386451,
    "ECCENTRICITY": 0.0001536,
    "INCLINATION": 53.0523,
    "RA_OF_ASC_NODE": 164.4661,
    "ARG_OF_PERICENTER": 86.1973,
    "MEAN_ANOMALY": 273.9192,
    "EPHEMERIS_TYPE": 0,
    "CLASSIFICATION_TYPE": "U",
    "NORAD_CAT_ID": 48373,
    "ELEMENT_SET_NO": 999,
    "REV_AT_EPOCH": 24927,
    "BSTAR": 0.00016173,
    "MEAN_MOTION_DOT": 2.127e-05,
    "MEAN_MOTION_DDOT": 0.0,
    "TLE_LINE1": "1 48373U 21038W   25314.99328958  .00002127  00000+0  16173-3 0  9999",
    "TLE_LINE2": "2 48373  53.0523 164.4661 0001536  86.1973 273.9192 15.06386451249278",
    "COMMENT": "Grouped by shell and plane from TLE"
  },
  {
    "OBJECT_NAME": "STARLINK-2604",
    "OBJECT_ID": "21038X",
    "EPOCH": "2025-11-11T06:55:02.144928",
    "MEAN_MOTION": 15.06406642,
    "ECCENTRICITY": 0.0001853,
    "INCLINATION": 53.0531,
    "RA_OF_ASC_NODE": 163.4916,
    "ARG_OF_PERICENTER": 88.912,
    "MEAN_ANOMALY": 271.2081,
    "EPHEMERIS_TYPE": 0,
    "CLASSIFICATION_TYPE": "U",
    "NORAD_CAT_ID": 48374,
    "ELEMENT_SET_NO": 999,
    "REV_AT_EPOCH": 24931,
    "BSTAR": 0.00032357999999999996,
    "MEAN_MOTION_DOT": 4.542e-05,
    "MEAN_MOTION_DDOT": 0.0,
    "TLE_LINE1": "1 48374U 21038X   25315.28821927  .00004542  00000+0  32358-3 0  9993",
    "TLE_LINE2": "2 48374  53.0531 163.4916 0001853  88.9120 271.2081 15.06406642249314",
    "COMMENT": "Grouped by shell and plane from TLE"
  },
  {
    "OBJECT_NAME": "STARLINK-2603",
    "OBJECT_ID": "21038Y",
    "EPOCH": "2025-11-10T22:04:11.814816",
    "MEAN_MOTION": 15.06395203,
    "ECCENTRICITY": 0.0001636,
    "INCLINATION": 53.052,
    "RA_OF_ASC_NODE": 164.7974,
    "ARG_OF_PERICENTER": 74.8008,
    "MEAN_ANOMALY": 285.3162,
    "EPHEMERIS_TYPE": 0,
    "CLASSIFICATION_TYPE": "U",
    "NORAD_CAT_ID": 48375,
    "ELEMENT_SET_NO": 999,
    "REV_AT_EPOCH": 24926,
    "BSTAR": 0.00035023,
    "MEAN_MOTION_DOT": 4.938e-05,
    "MEAN_MOTION_DDOT": 0.0,
    "TLE_LINE1": "1 48375U 21038Y   25314.91958119  .00004938  00000+0  35023-3 0  9998",
    "TLE_LINE2": "2 48375  53.0520 164.7974 0001636  74.8008 285.3162 15.06395203249269",
    "COMMENT": "Grouped by shell and plane from TLE"
  },
  {
    "OBJECT_NAME": "STARLINK-2610",
    "OBJECT_ID": "21038Z",
    "EPOCH": "2025-11-10T23:34:25.466016",
    "MEAN_MOTION": 15.06405497,
    "ECCENTRICITY": 0.0001403,
    "INCLINATION": 53.0526,
    "RA_OF_ASC_NODE": 164.5131,
    "ARG_OF_PERICENTER": 87.2764,
    "MEAN_ANOMALY": 272.8386,
    "EPHEMERIS_TYPE": 0,
    "CLASSIFICATION_TYPE": "U",
    "NORAD_CAT_ID": 48376,
    "ELEMENT_SET_NO": 999,
    "REV_AT_EPOCH": 24927,
    "BSTAR": 0.00028225,
    "MEAN_MOTION_DOT": 3.926e-05,
    "MEAN_MOTION_DDOT": 0.0,
    "TLE_LINE1": "1 48376U 21038Z   25314.98223919  .00003926  00000+0  28225-3 0  9991",
    "TLE_LINE2": "2 48376  53.0526 164.5131 0001403  87.2764 272.8386 15.06405497249275",
    "COMMENT": "Grouped by shell and plane from TLE"
  }
]